STARLINK-2655           
1 48449U 21040X   26068.56559856 -.00000433  00000+0 -24980-5 0  9996
2 48449  53.1635 178.7122 0001428  91.6237 268.4927 15.30196580266667
TIANMU-1 08             
1 57400U 23101B   26066.00237819  .00000346  00000+0  14775-4 0  9993
2 57400  97.2717 118.7901 0006380 134.2174 225.9592 15.29204229146020
